[
    {
        "Altitude(m)": 705569.1844879023,
        "Argument of Periapsis(deg)": 0.009112096949301655,
        "Eccentricity": 0.0,
        "Inclination(deg)": 45.0,
        "Latitude(deg)": 37.13086770343031,
        "Longitude(deg)": 143.2441875118894,
        "Mean Anomaly(deg)": 58.31747331798463,
        "RAAN(deg)": 194.99139844683344,
        "Satellite Name": "Constellation 1 861",
        "Satellite Number": 861,
        "Semi-Major Axis(m)": 7083131.272910544,
        "Time(s)": 152
    },
    {
        "Altitude(m)": 705574.9244303161,
        "Argument of Periapsis(deg)": 0.009172044955547059,
        "Eccentricity": 0.0,
        "Inclination(deg)": 45.0,
        "Latitude(deg)": 37.159188628276816,
        "Longitude(deg)": 143.30738096026818,
        "Mean Anomaly(deg)": 58.37817445823451,
        "RAAN(deg)": 194.9913418576679,
        "Satellite Name": "Constellation 1 861",
        "Satellite Number": 861,
        "Semi-Major Axis(m)": 7083131.272910544,
        "Time(s)": 153
    },
    {
        "Altitude(m)": 705580.6601462729,
        "Argument of Periapsis(deg)": 0.009231992961792466,
        "Eccentricity": 0.0,
        "Inclination(deg)": 45.0,
        "Latitude(deg)": 37.18747118047421,
        "Longitude(deg)": 143.37062456975926,
        "Mean Anomaly(deg)": 58.43887559848447,
        "RAAN(deg)": 194.9912852685023,
        "Satellite Name": "Constellation 1 861",
        "Satellite Number": 861,
        "Semi-Major Axis(m)": 7083131.272910544,
        "Time(s)": 154
    },
    {
        "Altitude(m)": 705586.3916000949,
        "Argument of Periapsis(deg)": 0.009291940968037872,
        "Eccentricity": 0.0,
        "Inclination(deg)": 45.0,
        "Latitude(deg)": 37.215715292879516,
        "Longitude(deg)": 143.43391836119542,
        "Mean Anomaly(deg)": 58.499576738734355,
        "RAAN(deg)": 194.99122867933676,
        "Satellite Name": "Constellation 1 861",
        "Satellite Number": 861,
        "Semi-Major Axis(m)": 7083131.272910544,
        "Time(s)": 155
    },
    {
        "Altitude(m)": 705592.118756158,
        "Argument of Periapsis(deg)": 0.009351888974283276,
        "Eccentricity": 0.0,
        "Inclination(deg)": 45.0,
        "Latitude(deg)": 37.243920898305205,
        "Longitude(deg)": 143.49726218701244,
        "Mean Anomaly(deg)": 58.560277878984216,
        "RAAN(deg)": 194.99117209017115,
        "Satellite Name": "Constellation 1 861",
        "Satellite Number": 861,
        "Semi-Major Axis(m)": 7083131.272910544,
        "Time(s)": 156
    },
    {
        "Altitude(m)": 705597.8415788534,
        "Argument of Periapsis(deg)": 0.00941183698052868,
        "Eccentricity": 0.0,
        "Inclination(deg)": 45.0,
        "Latitude(deg)": 37.272087929518534,
        "Longitude(deg)": 143.560656403636,
        "Mean Anomaly(deg)": 58.62097901923416,
        "RAAN(deg)": 194.9911155010056,
        "Satellite Name": "Constellation 1 861",
        "Satellite Number": 861,
        "Semi-Major Axis(m)": 7083131.272910544,
        "Time(s)": 157
    },
    {
        "Altitude(m)": 705603.5600326264,
        "Argument of Periapsis(deg)": 0.009471784986774088,
        "Eccentricity": 0.0,
        "Inclination(deg)": 45.0,
        "Latitude(deg)": 37.300216319243226,
        "Longitude(deg)": 143.62410086289734,
        "Mean Anomaly(deg)": 58.681680159484046,
        "RAAN(deg)": 194.99105891184004,
        "Satellite Name": "Constellation 1 861",
        "Satellite Number": 861,
        "Semi-Major Axis(m)": 7083131.272910544,
        "Time(s)": 158
    },
    {
        "Altitude(m)": 705609.2740819509,
        "Argument of Periapsis(deg)": 0.009531732993019492,
        "Eccentricity": 0.0,
        "Inclination(deg)": 45.0,
        "Latitude(deg)": 37.32830600015891,
        "Longitude(deg)": 143.68759558442028,
        "Mean Anomaly(deg)": 58.74238129973396,
        "RAAN(deg)": 194.99100232267446,
        "Satellite Name": "Constellation 1 861",
        "Satellite Number": 861,
        "Semi-Major Axis(m)": 7083131.272910544,
        "Time(s)": 159
    },
    {
        "Altitude(m)": 705614.9836913347,
        "Argument of Periapsis(deg)": 0.009591680999264898,
        "Eccentricity": 0.0,
        "Inclination(deg)": 45.0,
        "Latitude(deg)": 37.35635690490176,
        "Longitude(deg)": 143.75114058752303,
        "Mean Anomaly(deg)": 58.80308243998379,
        "RAAN(deg)": 194.9909457335089,
        "Satellite Name": "Constellation 1 861",
        "Satellite Number": 861,
        "Semi-Major Axis(m)": 7083131.272910544,
        "Time(s)": 160
    },
    {
        "Altitude(m)": 705620.6888253348,
        "Argument of Periapsis(deg)": 0.009651629005510304,
        "Eccentricity": 0.0,
        "Inclination(deg)": 45.0,
        "Latitude(deg)": 37.384368966064834,
        "Longitude(deg)": 143.8147358912165,
        "Mean Anomaly(deg)": 58.86378358023378,
        "RAAN(deg)": 194.99088914434333,
        "Satellite Name": "Constellation 1 861",
        "Satellite Number": 861,
        "Semi-Major Axis(m)": 7083131.272910544,
        "Time(s)": 161
    },
    {
        "Altitude(m)": 705626.3894485346,
        "Argument of Periapsis(deg)": 0.00971157701175571,
        "Eccentricity": 0.0,
        "Inclination(deg)": 45.0,
        "Latitude(deg)": 37.41234211619835,
        "Longitude(deg)": 143.87838151420277,
        "Mean Anomaly(deg)": 58.92448472048364,
        "RAAN(deg)": 194.99083255517775,
        "Satellite Name": "Constellation 1 861",
        "Satellite Number": 861,
        "Semi-Major Axis(m)": 7083131.272910544,
        "Time(s)": 162
    },
    {
        "Altitude(m)": 705632.0855255667,
        "Argument of Periapsis(deg)": 0.009771525018001118,
        "Eccentricity": 0.0,
        "Inclination(deg)": 45.0,
        "Latitude(deg)": 37.44027628781037,
        "Longitude(deg)": 143.9420773067769,
        "Mean Anomaly(deg)": 58.98518586073352,
        "RAAN(deg)": 194.99077596601217,
        "Satellite Name": "Constellation 1 861",
        "Satellite Number": 861,
        "Semi-Major Axis(m)": 7083131.272910544,
        "Time(s)": 163
    },
    {
        "Altitude(m)": 705637.7770210914,
        "Argument of Periapsis(deg)": 0.00983147302424652,
        "Eccentricity": 0.0,
        "Inclination(deg)": 45.0,
        "Latitude(deg)": 37.468171413366264,
        "Longitude(deg)": 144.00582362321362,
        "Mean Anomaly(deg)": 59.04588700098349,
        "RAAN(deg)": 194.9907193768466,
        "Satellite Name": "Constellation 1 861",
        "Satellite Number": 861,
        "Semi-Major Axis(m)": 7083131.272910544,
        "Time(s)": 164
    },
    {
        "Altitude(m)": 705643.4638998113,
        "Argument of Periapsis(deg)": 0.009891421030491928,
        "Eccentricity": 0.0,
        "Inclination(deg)": 45.0,
        "Latitude(deg)": 37.49602742529024,
        "Longitude(deg)": 144.0696203131834,
        "Mean Anomaly(deg)": 59.10658814123333,
        "RAAN(deg)": 194.99066278768103,
        "Satellite Name": "Constellation 1 861",
        "Satellite Number": 861,
        "Semi-Major Axis(m)": 7083131.272910544,
        "Time(s)": 165
    },
    {
        "Altitude(m)": 705649.1461264694,
        "Argument of Periapsis(deg)": 0.009951369036737332,
        "Eccentricity": 0.0,
        "Inclination(deg)": 45.0,
        "Latitude(deg)": 37.523844255965145,
        "Longitude(deg)": 144.13346739413944,
        "Mean Anomaly(deg)": 59.167289281483264,
        "RAAN(deg)": 194.99060619851548,
        "Satellite Name": "Constellation 1 861",
        "Satellite Number": 861,
        "Semi-Major Axis(m)": 7083131.272910544,
        "Time(s)": 166
    },
    {
        "Altitude(m)": 705654.8236658431,
        "Argument of Periapsis(deg)": 0.010011317042982738,
        "Eccentricity": 0.0,
        "Inclination(deg)": 45.0,
        "Latitude(deg)": 37.55162183773273,
        "Longitude(deg)": 144.19736488321882,
        "Mean Anomaly(deg)": 59.227990421733125,
        "RAAN(deg)": 194.9905496093499,
        "Satellite Name": "Constellation 1 861",
        "Satellite Number": 861,
        "Semi-Major Axis(m)": 7083131.272910544,
        "Time(s)": 167
    },
    {
        "Altitude(m)": 705660.4964827508,
        "Argument of Periapsis(deg)": 0.010071265049228144,
        "Eccentricity": 0.0,
        "Inclination(deg)": 45.0,
        "Latitude(deg)": 37.57936010289422,
        "Longitude(deg)": 144.26131279724177,
        "Mean Anomaly(deg)": 59.28869156198306,
        "RAAN(deg)": 194.99049302018432,
        "Satellite Name": "Constellation 1 861",
        "Satellite Number": 861,
        "Semi-Major Axis(m)": 7083131.272910544,
        "Time(s)": 168
    },
    {
        "Altitude(m)": 705666.1645420541,
        "Argument of Periapsis(deg)": 0.01013121305547355,
        "Eccentricity": 0.0,
        "Inclination(deg)": 45.0,
        "Latitude(deg)": 37.607058983710616,
        "Longitude(deg)": 144.32531115270945,
        "Mean Anomaly(deg)": 59.34939270223295,
        "RAAN(deg)": 194.99043643101876,
        "Satellite Name": "Constellation 1 861",
        "Satellite Number": 861,
        "Semi-Major Axis(m)": 7083131.272910544,
        "Time(s)": 169
    },
    {
        "Altitude(m)": 705671.8278086444,
        "Argument of Periapsis(deg)": 0.010191161061718957,
        "Eccentricity": 0.0,
        "Inclination(deg)": 45.0,
        "Latitude(deg)": 37.63471841240307,
        "Longitude(deg)": 144.38935996580287,
        "Mean Anomaly(deg)": 59.410093842482816,
        "RAAN(deg)": 194.99037984185318,
        "Satellite Name": "Constellation 1 861",
        "Satellite Number": 861,
        "Semi-Major Axis(m)": 7083131.272910544,
        "Time(s)": 170
    }
]